{
    "links": {
        "self": "http://www.neowsapp.com/rest/v1/neo/3827154?api_key=iIulBulltgU6a56xZRHN4H3l9WmuAYTsLGpBGhQ2"
    },
    "id": "3827154",
    "neo_reference_id": "3827154",
    "name": "(2018 RF)",
    "designation": "2018 RF",
    "nasa_jpl_url": "http://ssd.jpl.nasa.gov/sbdb.cgi?sstr=3827154",
    "absolute_magnitude_h": 24.6,
    "estimated_diameter": {
        "kilometers": {
            "estimated_diameter_min": 0.0319561887,
            "estimated_diameter_max": 0.0714562102
        },
        "meters": {
            "estimated_diameter_min": 31.9561886721,
            "estimated_diameter_max": 71.4562101727
        },
        "miles": {
            "estimated_diameter_min": 0.0198566489,
            "estimated_diameter_max": 0.0444008168
        },
        "feet": {
            "estimated_diameter_min": 104.8431420431,
            "estimated_diameter_max": 234.436392583
        }
    },
    "is_potentially_hazardous_asteroid": false,
    "close_approach_data": [
        {
            "close_approach_date": "2018-09-08",
            "close_approach_date_full": "2018-Sep-08 00:22",
            "epoch_date_close_approach": 1536366120000,
            "relative_velocity": {
                "kilometers_per_second": "13.2810354009",
                "kilometers_per_hour": "47811.7274433469",
                "miles_per_hour": "29708.3480883396"
            },
            "miss_distance": {
                "astronomical": "0.0302240852",
                "lunar": "11.7571691428",
                "kilometers": "4521458.768618524",
                "miles": "2809504.2003786712"
            },
            "orbiting_body": "Earth"
        }
    ],
    "orbital_data": {
        "orbit_id": "3",
        "orbit_determination_date": "2018-09-08 07:05:35",
        "first_observation_date": "2018-08-12",
        "last_observation_date": "2018-09-08",
        "data_arc_in_days": 27,
        "observations_used": 32,
        "orbit_uncertainty": "7",
        "minimum_orbit_intersection": ".00603962",
        "jupiter_tisserand_invariant": "3.360",
        "epoch_osculation": "2459000.5",
        "eccentricity": ".5976396743572131",
        "semi_major_axis": "2.243495058724253",
        "inclination": "8.703805498015992",
        "ascending_node_longitude": "166.6190263265368",
        "orbital_period": "1227.399954592227",
        "perihelion_distance": ".9026934024062738",
        "perihelion_argument": "226.0586459561121",
        "aphelion_distance": "3.584296715042233",
        "perihelion_time": "2458403.952355984324",
        "mean_anomaly": "174.9691704339284",
        "mean_motion": ".293302927585329",
        "equinox": "J2000",
        "orbit_class": {
            "orbit_class_type": "APO",
            "orbit_class_description": "Near-Earth asteroid orbits which cross the Earth’s orbit similar to that of 1862 Apollo",
            "orbit_class_range": "a (semi-major axis) > 1.0 AU; q (perihelion) < 1.017 AU"
        }
    },
    "is_sentry_object": false
}